[{"OBJECT_NAME":"LEMUR-2-ANDIS","OBJECT_ID":"2017-042P","EPOCH":"2026-03-09T13:25:33.116448","MEAN_MOTION":15.30557934,"ECCENTRICITY":0.0009101,"INCLINATION":97.3659,"RA_OF_ASC_NODE":249.795,"ARG_OF_PERICENTER":4.3248,"MEAN_ANOMALY":355.807,"EPHEMERIS_TYPE":0,"CLASSIFICATION_TYPE":"U","NORAD_CAT_ID":42838,"ELEMENT_SET_NO":999,"REV_AT_EPOCH":47319,"BSTAR":0.00079875,"MEAN_MOTION_DOT":0.00023598,"MEAN_MOTION_DDOT":0},{"OBJECT_NAME":"STARLINK-1316","OBJECT_ID":"2020-019BH","EPOCH":"2026-03-09T13:03:15.183072","MEAN_MOTION":15.30197836,"ECCENTRICITY":0.00013151,"INCLINATION":53.1611,"RA_OF_ASC_NODE":129.9786,"ARG_OF_PERICENTER":83.5347,"MEAN_ANOMALY":276.5804,"EPHEMERIS_TYPE":0,"CLASSIFICATION_TYPE":"U","NORAD_CAT_ID":45415,"ELEMENT_SET_NO":999,"REV_AT_EPOCH":32997,"BSTAR":2.051712e-6,"MEAN_MOTION_DOT":-2.98e-6,"MEAN_MOTION_DDOT":0}]
